{
"type": "FeatureCollection",
"name": "RO_UF_2025",
"crs": { "type": "name", "properties": { "name": "urn:ogc:def:crs:OGC:1.3:CRS84" } },
"features": [
{ "type": "Feature", "properties": { "CD_MUN": "1101559", "NM_MUN": "Teixeirópolis", "CD_RGI": "110004", "NM_RGI": "Ji-Paraná", "CD_RGINT": "1102", "NM_RGINT": "Ji-Paraná", "CD_UF": "11", "NM_UF": "Rondônia", "SIGLA_UF": "RO", "CD_REGIAO": "1", "NM_REGIAO": "Norte", "SIGLA_RG": "N", "CD_CONCURB": "", "NM_CONCURB": "", "AREA_KM2": 459.933 }, "geometry": { "type": "Polygon", "coordinates": [ [ [ -62.9213543, -12.8408615 ], [ -62.9378475, -12.8429892999999 ], [ -62.942991499999899, -12.8546105 ], [ -62.9632139, -12.8473807 ], [ -62.9709094, -12.8589062999999 ], [ -62.982044599999902, -12.853747 ], [ -62.983432299999897, -12.8441346999999 ], [ -63.0070982, -12.839596 ], [ -63.0135473, -12.828980499999901 ], [ -63.0087947, -12.8151958 ], [ -63.020514499999898, -12.8064011 ], [ -63.021358899999903, -12.788248399999899 ], [ -63.033826, -12.7807152 ], [ -63.0401866999999, -12.7657025999999 ], [ -63.041906, -12.7500990999999 ], [ -63.054578499999899, -12.731131499999901 ], [ -63.0789912, -12.728131 ], [ -63.082851199999901, -12.7119784 ], [ -63.0766242, -12.700111999999899 ], [ -63.064782, -12.696130799999899 ], [ -63.062644099999901, -12.6848315999999 ], [ -63.094657, -12.6840946 ], [ -63.0993617, -12.679628099999899 ], [ -63.091493199999903, -12.666256099999901 ], [ -63.090550199999903, -12.6360127 ], [ -63.119855399999899, -12.6279962999999 ], [ -63.1217546, -12.638199 ], [ -63.146775499999897, -12.6377353 ], [ -63.1538423, -12.633186 ], [ -63.154637299999898, -12.6182573999999 ], [ -63.1660767, -12.616049 ], [ -63.1681526, -12.62581 ], [ -63.163249999999898, -12.6353501999999 ], [ -63.175925999999897, -12.6399878 ], [ -63.1870562, -12.6245291999999 ], [ -63.1981865, -12.6312867999999 ], [ -63.1913847, -12.6488213 ], [ -63.2042374, -12.660349 ], [ -63.2131151, -12.6550046999999 ], [ -63.2403664, -12.671435099999901 ], [ -63.232902099999897, -12.6861428 ], [ -63.2424865, -12.6907694 ], [ -63.2606724, -12.6852043 ], [ -63.2841916, -12.684839899999901 ], [ -63.2993963, -12.681759199999901 ], [ -63.3308436, -12.669315 ], [ -63.3485548, -12.6561530999999 ], [ -63.3708592999999, -12.6596865 ], [ -63.3838888, -12.6531497 ], [ -63.4032341, -12.6294758999999 ], [ -63.412111799999899, -12.6102630999999 ], [ -63.4198853, -12.6064205 ], [ -63.4381342, -12.608377699999901 ], [ -63.4425874, -12.6012087 ], [ -63.429384, -12.5913957 ], [ -63.439363199999903, -12.5815982999999 ], [ -63.4371548, -12.564373 ], [ -63.4739971, -12.561570199999901 ], [ -63.5017385, -12.5673236 ], [ -63.5272856, -12.5456518 ], [ -63.5504908999999, -12.508437 ], [ -63.576164999999897, -12.5012065999999 ], [ -63.5945565, -12.4893594 ], [ -63.613976, -12.4852736 ], [ -63.621159599999899, -12.4735115 ], [ -63.6547988, -12.4622939 ], [ -63.673059, -12.4631851 ], [ -63.6847579, -12.4530568 ], [ -63.691547899999897, -12.4494205999999 ], [ -63.733716699999903, -12.4386223999999 ], [ -63.767164, -12.4412232999999 ], [ -63.7863035, -12.427945 ], [ -63.804972, -12.4482434 ], [ -63.818051399999902, -12.4470099 ], [ -63.8339707, -12.4634295 ], [ -63.850333299999903, -12.4603887 ], [ -63.873104, -12.4470828999999 ], [ -63.8873034, -12.4472509 ], [ -63.8893535, -12.465708999999899 ], [ -63.9009099, -12.4828785999999 ], [ -63.8978016, -12.499692 ], [ -63.9038393, -12.508481199999901 ], [ -63.918555399999903, -12.5107576999999 ], [ -63.9397258, -12.526587699999901 ], [ -63.9519998, -12.5316202 ], [ -63.963361899999903, -12.529698199999901 ], [ -63.991275, -12.5053617999999 ], [ -64.000551899999905, -12.5030242999999 ], [ -64.003559299999907, -12.5146889 ], [ -64.0178902, -12.509235 ], [ -64.0401616, -12.5151395 ], [ -64.05701, -12.4920385999999 ], [ -64.065768799999901, -12.4916868999999 ], [ -64.0820267, -12.501321599999899 ], [ -64.0957998, -12.484199799999899 ], [ -64.1154951, -12.5039629 ], [ -64.124319699999901, -12.504499699999901 ], [ -64.122108099999906, -12.4882903 ], [ -64.1302161, -12.4770260999999 ], [ -64.1447317, -12.4840684 ], [ -64.146607199999906, -12.5017649 ], [ -64.154057099999903, -12.5119551999999 ], [ -64.1646071, -12.5143681 ], [ -64.1738883, -12.5005753 ], [ -64.170943899999898, -12.4915301999999 ], [ -64.171301599999893, -12.470495 ], [ -64.1841464, -12.4659177 ], [ -64.196773199999896, -12.4728443 ], [ -64.2051881, -12.4646504999999 ], [ -64.219720499999895, -12.462322599999901 ], [ -64.2344917, -12.4554787 ], [ -64.245829899999904, -12.4695894999999 ], [ -64.2699754, -12.4880537 ], [ -64.284444199999896, -12.5031751999999 ], [ -64.293975, -12.499973 ], [ -64.2988243, -12.4907931 ], [ -64.2906131, -12.4667411999999 ], [ -64.294721, -12.4578167999999 ], [ -64.3218075, -12.4566672 ], [ -64.3450878, -12.459819099999899 ], [ -64.406167599999904, -12.4470481 ], [ -64.4207481, -12.4376801999999 ], [ -64.4319677, -12.4214469 ], [ -64.4492446, -12.4068634 ], [ -64.4616401, -12.3858428 ], [ -64.47902, -12.379576 ], [ -64.499413, -12.3672951999999 ], [ -64.512106199999906, -12.351429 ], [ -64.5130783, -12.3438249 ], [ -64.501305, -12.331396499999901 ], [ -64.495528, -12.3110121 ], [ -64.4928919, -12.291194899999899 ], [ -64.4965802, -12.261987 ], [ -64.503277, -12.2351522 ], [ -64.512789499999897, -12.2228731 ], [ -64.5236391, -12.2258358999999 ], [ -64.5419683, -12.2407512999999 ], [ -64.5522433, -12.241946599999901 ], [ -64.5641102, -12.2305226 ], [ -64.568609, -12.2198129 ], [ -64.580053899999896, -12.2143004 ], [ -64.594553899999894, -12.215699 ], [ -64.6162191, -12.2147173 ], [ -64.657654599999901, -12.1993588 ], [ -64.6715551, -12.1926791 ], [ -64.6980281, -12.1877994 ], [ -64.712944799999903, -12.173579899999901 ], [ -64.7177993, -12.1424671 ], [ -64.712192899999906, -12.1206506 ], [ -64.698358799999895, -12.103594 ], [ -64.6976342, -12.0960934 ], [ -64.7066126, -12.088252 ], [ -64.7215249, -12.0880958 ], [ -64.7385545, -12.1000835999999 ], [ -64.733696199999898, -12.1181075 ], [ -64.736552199999906, -12.138513 ], [ -64.7417763, -12.1512051999999 ], [ -64.7587083, -12.1571026 ], [ -64.7685863, -12.145999 ], [ -64.767082899999906, -12.132918599999901 ], [ -64.7575025, -12.1123057 ], [ -64.7598644, -12.1022977 ], [ -64.7704471, -12.0937086 ], [ -64.7884731, -12.0857890999999 ], [ -64.8000785, -12.0858974 ], [ -64.8094972, -12.0939514999999 ], [ -64.823444299999906, -12.1205897999999 ], [ -64.8326092, -12.1217053 ], [ -64.8422567, -12.1074872 ], [ -64.842414699999907, -12.0945952 ], [ -64.8322183, -12.081011499999899 ], [ -64.8154971, -12.0724281999999 ], [ -64.8100294, -12.0644907999999 ], [ -64.8126942, -12.0448714999999 ], [ -64.8262261, -12.0211947 ], [ -64.839586799999907, -12.0106792999999 ], [ -64.8836724, -12.0136659 ], [ -64.9170257, -12.0283830999999 ], [ -64.9299434, -12.0206046 ], [ -64.940610799999902, -12.0002468 ], [ -64.948388899999898, -11.9934266 ], [ -64.9660565, -12.0002946999999 ], [ -64.9721636, -12.0181603 ], [ -64.980887999999894, -12.0168811 ], [ -65.000555899999895, -11.9933727 ], [ -65.017474799999903, -11.998558 ], [ -65.0289122, -11.9976371 ], [ -65.0354199, -11.986905 ], [ -65.0255864, -11.9716488999999 ], [ -65.039695499999894, -11.958127 ], [ -65.0276418, -11.945810199999899 ], [ -65.0186115, -11.9209236 ], [ -65.014998499999905, -11.904154499999899 ], [ -65.0188601, -11.8920858999999 ], [ -65.0308307, -11.887359199999899 ], [ -65.0599476, -11.8828005999999 ], [ -65.0706948, -11.8691097 ], [ -65.070835799999898, -11.856367299999899 ], [ -65.060751299999893, -11.8200307999999 ], [ -65.0597243, -11.790678199999901 ], [ -65.0665883, -11.767450199999899 ], [ -65.079745499999902, -11.7361551 ], [ -65.0805602, -11.7203673 ], [ -65.0905256, -11.7077773999999 ], [ -65.1072766, -11.7086317 ], [ -65.128246499999904, -11.7205104 ], [ -65.1829733, -11.721703499999901 ], [ -65.1862235, -11.7268902 ], [ -65.176086999999896, -11.7412744 ], [ -65.1739717, -11.7531101 ], [ -65.18756, -11.7562464 ], [ -65.2047823999999, -11.7494621999999 ], [ -65.229328699999897, -11.7357046999999 ], [ -65.250609799999907, -11.7213743 ], [ -65.2594749, -11.7100808 ], [ -65.2569675, -11.6964012999999 ], [ -65.2313306, -11.6737234999999 ], [ -65.2179133, -11.6520886 ], [ -65.218590199999895, -11.640732 ], [ -65.229999, -11.623169399999901 ], [ -65.230386, -11.6120961999999 ], [ -65.224865, -11.6010530999999 ], [ -65.234976, -11.5767805999999 ], [ -65.2319186, -11.566078699999901 ], [ -65.217471, -11.5526828 ], [ -65.212194, -11.542862699999899 ], [ -65.2119168, -11.5304891 ], [ -65.2174942, -11.5204545999999 ], [ -65.2289701, -11.5156301 ], [ -65.2573346, -11.514492599999899 ], [ -65.304919299999895, -11.5016 ], [ -65.319003199999898, -11.447390599999901 ], [ -65.326499, -11.401597 ], [ -65.3261112, -11.3908324 ], [ -65.3353946, -11.357032499999899 ], [ -65.333393, -11.3450318 ], [ -65.324024199999897, -11.338618 ], [ -65.2976647, -11.3350798 ], [ -65.2937707, -11.319243 ], [ -65.301002, -11.315719999999899 ], [ -65.339636799999894, -11.3124485 ], [ -65.346918399999893, -11.3028689 ], [ -65.3598559, -11.2578043999999 ], [ -65.361883099999901, -11.2456179 ], [ -65.360698399999904, -11.2233183 ], [ -65.3454942, -11.210839 ], [ -65.325634599999901, -11.2116869 ], [ -65.319667, -11.1934843 ], [ -65.325621199999901, -11.186620499999901 ], [ -65.343301499999896, -11.190314 ], [ -65.3508619, -11.1863923 ], [ -65.3634954999999, -11.1472658 ], [ -65.3615037, -11.1348657 ], [ -65.351470699999894, -11.1217237999999 ], [ -65.3251928, -11.1037759 ], [ -65.2888895, -11.0942522999999 ], [ -65.2798017, -11.0791174 ], [ -65.2829168, -11.058614 ], [ -65.300550299999898, -11.0393288999999 ], [ -65.2971671, -11.025972099999899 ], [ -65.269139299999907, -10.9998833 ], [ -65.2549744, -10.9948421999999 ], [ -65.250859, -10.9845455 ], [ -65.2663838, -10.9646387 ], [ -65.2738062, -10.9451966 ], [ -65.2861108, -10.9230034 ], [ -65.2666125, -10.9218079 ], [ -65.269194099999893, -10.8953933999999 ], [ -65.2755564, -10.871160799999901 ], [ -65.2994169, -10.8469023 ], [ -65.3168835, -10.8253895 ], [ -65.3395207, -10.8080067 ], [ -65.3625013, -10.8016120999999 ], [ -65.3669649, -10.7962563 ], [ -65.3655257, -10.7800746 ], [ -65.348169799999894, -10.778442499999899 ], [ -65.3447475, -10.762263599999899 ], [ -65.349579699999893, -10.743456299999901 ], [ -65.3441913999999, -10.7211811 ], [ -65.343605899999901, -10.699581599999901 ], [ -65.3496676, -10.6705476 ], [ -65.3583369, -10.6573908999999 ], [ -65.3804122, -10.6456605999999 ], [ -65.3947768, -10.6457707 ], [ -65.4051334, -10.6405541 ], [ -65.4161342, -10.6167374999999 ], [ -65.4092806, -10.6144113 ], [ -65.4106045, -10.6014742999999 ], [ -65.3992436999999, -10.590881099999899 ], [ -65.3976082, -10.5808997 ], [ -65.4046946, -10.5537525999999 ], [ -65.4184714, -10.5397652999999 ], [ -65.4193056, -10.5268376 ], [ -65.410579099999893, -10.5129499 ], [ -65.415577799999895, -10.5003704 ], [ -65.4234077, -10.4951498999999 ], [ -65.4297473, -10.4809485 ], [ -65.4244168, -10.4659052 ], [ -65.4047964, -10.464022 ], [ -65.390434099999894, -10.447599 ], [ -65.3814996, -10.429074199999899 ], [ -65.3790817, -10.4089966 ], [ -65.3813235, -10.3978243 ], [ -65.391801299999898, -10.3744374 ], [ -65.374026399999906, -10.3505794 ], [ -65.3630797, -10.343282299999901 ], [ -65.3475, -10.3216024 ], [ -65.3273573, -10.305268 ], [ -65.3182472, -10.287728199999901 ], [ -65.3171082, -10.2773973 ], [ -65.3067713, -10.249828599999899 ], [ -65.2942189, -10.237746699999899 ], [ -65.2888291, -10.2198708 ], [ -65.291218199999904, -10.2058898 ], [ -65.3034967, -10.1821894999999 ], [ -65.3070251, -10.1649978 ], [ -65.300281, -10.1394395 ], [ -65.3022169, -10.1234393 ], [ -65.3005774, -10.1009084 ], [ -65.3197992, -10.079507 ], [ -65.3261626, -10.0661797 ], [ -65.329357, -10.0431963999999 ], [ -65.320695, -10.0027390999999 ], [ -65.322219, -9.97765139999996 ], [ -65.331938299999905, -9.96805039999998 ], [ -65.3330094, -9.944282 ], [ -65.328515799999906, -9.92127449999998 ], [ -65.3122688, -9.893120799999959 ], [ -65.2958042, -9.87844689999997 ], [ -65.2886592, -9.86572669999993 ], [ -65.2873772, -9.83986339999996 ], [ -65.292962799999898, -9.833299 ], [ -65.3168868, -9.81842379999995 ], [ -65.3219943, -9.81131289999996 ], [ -65.326859399999904, -9.784053 ], [ -65.3430552, -9.753526099999929 ], [ -65.3568806, -9.72017319999998 ], [ -65.378304399999905, -9.697125399999949 ], [ -65.3916015, -9.687630199999941 ], [ -65.443436899999895, -9.66932309999993 ], [ -65.4435232, -9.692652099999981 ], [ -65.4505478, -9.700462699999949 ], [ -65.4718561, -9.71368509999996 ], [ -65.4898783, -9.71302909999997 ], [ -65.4857393, -9.729188099999931 ], [ -65.5010191, -9.729839099999939 ], [ -65.504274199999898, -9.748726199999959 ], [ -65.5042197, -9.76769609999997 ], [ -65.4982449, -9.778371499999929 ], [ -65.5135248, -9.79317 ], [ -65.5340823, -9.782946199999969 ], [ -65.537358099999906, -9.79889469999995 ], [ -65.5532468, -9.80437139999998 ], [ -65.563576699999899, -9.82164169999993 ], [ -65.554100699999907, -9.832044199999929 ], [ -65.5580287, -9.84463489999996 ], [ -65.567912299999904, -9.83858219999996 ], [ -65.5969534, -9.841910599999951 ], [ -65.597662199999903, -9.82756 ], [ -65.605867, -9.824591599999961 ], [ -65.6236948, -9.83597979999996 ], [ -65.632192599999897, -9.830059499999949 ], [ -65.6330194, -9.809892899999969 ], [ -65.6473594, -9.815839 ], [ -65.6538613, -9.80758429999997 ], [ -65.6456865, -9.799241399999969 ], [ -65.6473554, -9.791469799999961 ], [ -65.660164699999896, -9.79341429999994 ], [ -65.670964399999903, -9.78109919999997 ], [ -65.689380899999904, -9.79984609999997 ], [ -65.6951637, -9.81224759999998 ], [ -65.7105471, -9.80731989999998 ], [ -65.7000182, -9.788178399999939 ], [ -65.7094638, -9.77361789999998 ], [ -65.7041626, -9.76384409999997 ], [ -65.6892185, -9.768833499999969 ], [ -65.6849693999999, -9.749008099999971 ], [ -65.697939, -9.75084279999993 ], [ -65.704162799999906, -9.75692 ], [ -65.7227495, -9.75664049999995 ], [ -65.733609, -9.763061 ], [ -65.7364664, -9.77772069999997 ], [ -65.746048599999895, -9.78152639999996 ], [ -65.756222099999903, -9.76702309999996 ], [ -65.7726588, -9.75818779999997 ], [ -65.766602599999899, -9.739645899999971 ], [ -65.7779095, -9.73682549999995 ], [ -65.779492699999906, -9.74903089999998 ], [ -65.7753579, -9.766854499999971 ], [ -65.78089, -9.77211969999996 ], [ -65.783742699999905, -9.78634329999994 ], [ -65.793470699999901, -9.791366799999929 ], [ -65.80572, -9.788088 ], [ -65.81313, -9.77241319999996 ], [ -65.801603, -9.76575039999994 ], [ -65.8169386, -9.754664399999969 ], [ -65.822436099999905, -9.767419 ], [ -65.853580899999898, -9.79434179999993 ], [ -65.871501, -9.790963799999931 ], [ -65.8679149, -9.77267109999997 ], [ -65.8713618, -9.753388599999941 ], [ -65.8859115, -9.75248249999993 ], [ -65.9039948, -9.766839199999939 ], [ -65.912998, -9.76412979999998 ], [ -65.9189698, -9.75267379999997 ], [ -65.930812, -9.76735749999995 ], [ -65.9442435, -9.760356799999951 ], [ -65.9533312, -9.76884089999993 ], [ -65.967160099999901, -9.770650299999939 ], [ -65.9735213, -9.777332199999931 ], [ -65.9741334, -9.79791489999997 ], [ -65.985412499999896, -9.806355799999951 ], [ -65.998664399999896, -9.802293 ], [ -66.002216599999898, -9.79515359999994 ], [ -66.018167499999905, -9.810835699999931 ], [ -66.0260276, -9.81101529999995 ], [ -66.0332195, -9.78893379999994 ], [ -66.053222499999904, -9.78472389999996 ], [ -66.0711099, -9.784297199999971 ], [ -66.079716, -9.793615599999949 ], [ -66.0905804, -9.81278 ], [ -66.1014448, -9.803358799999961 ], [ -66.1001944, -9.784728799999931 ], [ -66.1228551, -9.791101399999951 ], [ -66.152024099999906, -9.785617799999949 ], [ -66.174053899999905, -9.794849299999949 ], [ -66.1762471, -9.803315 ], [ -66.1950561, -9.806309299999951 ], [ -66.194465299999905, -9.82876129999994 ], [ -66.2036697, -9.83462239999994 ], [ -66.215438699999893, -9.83267459999996 ], [ -66.2376611, -9.81459629999995 ], [ -66.2474728, -9.820620199999951 ], [ -66.2528023, -9.832081599999981 ], [ -66.263335799999894, -9.83064449999995 ], [ -66.274832699999905, -9.83483879999994 ], [ -66.286194899999899, -9.84471689999998 ], [ -66.313389, -9.83257149999997 ], [ -66.3376339, -9.840769899999939 ], [ -66.346193, -9.839374299999969 ], [ -66.355334099999894, -9.848081399999961 ], [ -66.358392599999902, -9.86404529999993 ], [ -66.382274799999905, -9.86785 ], [ -66.403114899999906, -9.863562 ], [ -66.4129460999999, -9.88242989999998 ], [ -66.4321686, -9.891977499999941 ], [ -66.4248916, -9.873728 ], [ -66.4310891, -9.867235099999959 ], [ -66.4649441, -9.875821299999931 ], [ -66.4728362, -9.868379399999981 ], [ -66.5143069, -9.876858699999961 ], [ -66.5200023, -9.88522769999997 ], [ -66.533752299999904, -9.88520569999997 ], [ -66.5438624, -9.877447 ], [ -66.548945, -9.888808099999951 ], [ -66.558861099999902, -9.880950199999971 ], [ -66.5875826, -9.90030149999996 ], [ -66.6199101, -9.894046399999979 ], [ -66.6267197, -9.89810119999993 ], [ -66.8102531, -9.81804589999996 ], [ -66.7805792, -9.79139329999998 ], [ -66.7772527, -9.768656199999951 ], [ -66.782140899999902, -9.758572 ], [ -66.775363599999906, -9.753091299999941 ], [ -66.758470799999898, -9.76035979999995 ], [ -66.725389699999894, -9.756072499999959 ], [ -66.701305, -9.74335989999997 ], [ -66.691802999999894, -9.73388989999995 ], [ -66.6849453, -9.71464559999993 ], [ -66.6241659, -9.68081919999997 ], [ -66.6094487, -9.664898499999939 ], [ -66.586306599999901, -9.67355889999993 ], [ -66.5631719, -9.660418399999971 ], [ -66.5517207, -9.65806 ], [ -66.5368884, -9.64354959999997 ], [ -66.5006134, -9.63356419999997 ], [ -66.497082, -9.62637829999994 ], [ -66.494916799999899, -9.60158319999994 ], [ -66.4674699, -9.582212 ], [ -66.4565878, -9.569404 ], [ -66.4389348, -9.55439 ], [ -66.428828, -9.53317629999998 ], [ -66.4172449, -9.51986269999998 ], [ -66.3924143, -9.500480099999949 ], [ -66.3890009, -9.464279599999941 ], [ -66.396108899999902, -9.43752009999997 ], [ -66.4147219, -9.421948799999941 ], [ -66.4088584, -9.406946599999969 ], [ -66.4011661, -9.40937859999997 ], [ -66.3747764, -9.426366099999941 ], [ -66.3533063, -9.416619499999969 ], [ -66.3416104, -9.427016699999969 ], [ -66.3332144, -9.427667 ], [ -66.318916199999904, -9.41996359999996 ], [ -66.3074975, -9.436845299999961 ], [ -66.284185799999904, -9.432163599999971 ], [ -66.2904394, -9.41249469999997 ], [ -66.2596688, -9.41099649999995 ], [ -66.2434147, -9.42938709999993 ], [ -66.2353054, -9.430874299999971 ], [ -66.220557, -9.42530379999994 ], [ -66.2047463, -9.425973699999931 ], [ -66.1736328, -9.434418699999981 ], [ -66.1543596, -9.420473399999929 ], [ -66.1238908, -9.408779399999959 ], [ -66.1011629, -9.414004 ], [ -66.059739599999901, -9.418217599999929 ], [ -66.0424116, -9.40237239999993 ], [ -66.0266341, -9.40084169999994 ], [ -66.0025757, -9.404257399999951 ], [ -65.9864438, -9.41312819999996 ], [ -65.9703006, -9.41316009999997 ], [ -65.967052099999904, -9.420105 ], [ -65.953161, -9.42876169999994 ], [ -65.9516373, -9.43626259999996 ], [ -65.9318805, -9.447594399999961 ], [ -65.9179971, -9.47815879999996 ], [ -65.9055491, -9.48802789999996 ], [ -65.8809080999999, -9.48746489999996 ], [ -65.8603533, -9.510768799999941 ], [ -65.846607699999893, -9.516411299999961 ], [ -65.8482485, -9.532324299999971 ], [ -65.8250771, -9.53009119999996 ], [ -65.818026599999897, -9.56225589999997 ], [ -65.8053833, -9.57051229999996 ], [ -65.800021699999903, -9.58502249999998 ], [ -65.791522, -9.58564439999998 ], [ -65.7769944, -9.576563299999981 ], [ -65.7707144, -9.56535609999997 ], [ -65.7565486, -9.56895519999995 ], [ -65.7503267, -9.55362309999998 ], [ -65.7427767, -9.552967099999931 ], [ -65.7299672, -9.56307269999996 ], [ -65.7141083, -9.544924799999929 ], [ -65.7051556, -9.52189469999996 ], [ -65.6960809, -9.50767129999997 ], [ -65.6809976, -9.500407499999939 ], [ -65.6812399, -9.46685819999993 ], [ -65.679435199999901, -9.45139289999997 ], [ -65.6727768, -9.44634959999996 ], [ -65.649884299999897, -9.447271299999951 ], [ -65.6416338, -9.43346739999993 ], [ -65.611326699999907, -9.42225559999997 ], [ -65.6046291, -9.41658179999996 ], [ -65.5881079, -9.413773799999939 ], [ -65.5717463, -9.417253 ], [ -65.548248, -9.42604529999994 ], [ -65.5224118, -9.44690449999996 ], [ -65.506550199999893, -9.447698 ], [ -65.5031633, -9.469975399999949 ], [ -65.4928012, -9.47366379999994 ], [ -65.4769664, -9.472663599999979 ], [ -65.467880299999905, -9.459291299999959 ], [ -65.4566578, -9.47051939999994 ], [ -65.4320983, -9.458635 ], [ -65.441380299999906, -9.432446599999929 ], [ -65.443330199999906, -9.42014719999997 ], [ -65.4546596, -9.408607 ], [ -65.4566002, -9.40120869999993 ], [ -65.4472669, -9.37941909999995 ], [ -65.4476908, -9.345786 ], [ -65.443628299999901, -9.330351899999931 ], [ -65.449101599999906, -9.324579799999981 ], [ -65.440218399999907, -9.311745299999931 ], [ -65.409797899999901, -9.322455699999979 ], [ -65.3935223, -9.339597 ], [ -65.379547699999904, -9.332847099999981 ], [ -65.377513399999899, -9.324426099999931 ], [ -65.3512411, -9.32310929999994 ], [ -65.342689499999906, -9.30946089999998 ], [ -65.3073529, -9.291487 ], [ -65.2881824, -9.27680309999994 ], [ -65.284182799999897, -9.270268299999939 ], [ -65.2703819, -9.263611699999959 ], [ -65.246661399999894, -9.25766359999994 ], [ -65.2117718, -9.27899339999993 ], [ -65.207153699999907, -9.29363719999998 ], [ -65.2089564999999, -9.30964329999995 ], [ -65.190764, -9.336916699999961 ], [ -65.1883246, -9.34485249999994 ], [ -65.1961582, -9.375262899999941 ], [ -65.1735439, -9.38544849999994 ], [ -65.1746532, -9.39378119999998 ], [ -65.184383599999904, -9.407006 ], [ -65.1854632, -9.42703169999993 ], [ -65.1551295, -9.43715909999997 ], [ -65.1428806, -9.44681229999998 ], [ -65.113718199999894, -9.43277829999994 ], [ -65.097849999999895, -9.43251579999998 ], [ -65.0889104, -9.42508039999996 ], [ -65.0922916, -9.40938669999997 ], [ -65.0779285, -9.40098139999998 ], [ -65.053546, -9.40214229999998 ], [ -65.04691, -9.387268399999931 ], [ -65.035680199999902, -9.374816799999961 ], [ -65.0393083, -9.359581299999951 ], [ -65.024412, -9.353891 ], [ -65.022019499999899, -9.346005199999979 ], [ -65.005846699999907, -9.343529399999969 ], [ -65.0127072, -9.328677499999969 ], [ -65.0018558, -9.31790089999993 ], [ -65.0005153, -9.30461379999997 ], [ -64.9861829, -9.291931 ], [ -64.9628795, -9.29277659999997 ], [ -64.9360779, -9.255811199999931 ], [ -64.9328252, -9.240588499999941 ], [ -64.921489, -9.22828979999997 ], [ -64.9196828, -9.22028029999996 ], [ -64.926541799999896, -9.20546449999995 ], [ -64.923736899999895, -9.198137899999949 ], [ -64.9319033, -9.18492709999998 ], [ -64.928991799999906, -9.177636599999969 ], [ -64.933625, -9.15440029999996 ], [ -64.9393148, -9.148304199999931 ], [ -64.9399298, -9.124565799999971 ], [ -64.9334658, -9.120342 ], [ -64.9292952, -9.10489359999997 ], [ -64.9156801, -9.074614299999951 ], [ -64.9193505, -9.050563899999929 ], [ -64.917266799999894, -9.043141099999961 ], [ -64.9015415, -9.04668659999993 ], [ -64.894099099999906, -9.043701799999949 ], [ -64.887233599999902, -9.02921039999995 ], [ -64.8705663, -9.012193599999931 ], [ -64.8393242, -8.99411139999995 ], [ -64.8078242, -8.985551799999939 ], [ -64.7916271, -8.986402799999951 ], [ -64.7779608, -8.994545799999971 ], [ -64.7611805, -9.020583399999961 ], [ -64.7535697, -9.020748199999961 ], [ -64.730541, -9.012509699999949 ], [ -64.7136811, -8.99386289999995 ], [ -64.6992671, -8.988262 ], [ -64.683350699999906, -8.99361689999995 ], [ -64.671376199999898, -9.01479619999998 ], [ -64.657706899999894, -9.008213 ], [ -64.641538, -9.006646 ], [ -64.611074, -9.01645179999997 ], [ -64.587961, -9.00950989999995 ], [ -64.5794041, -9.00125329999997 ], [ -64.578853299999906, -8.98841549999997 ], [ -64.5688804, -8.99177409999993 ], [ -64.5501239, -8.978270899999931 ], [ -64.533628, -8.97626969999993 ], [ -64.4963719, -8.97905749999995 ], [ -64.4711813, -8.97374459999997 ], [ -64.446573999999899, -8.97687049999996 ], [ -64.4332405, -8.96848189999997 ], [ -64.4084607, -8.96065039999996 ], [ -64.379923699999907, -8.946735099999961 ], [ -64.3233996, -8.92886059999995 ], [ -64.3095688, -8.934492899999951 ], [ -64.313038, -8.95057629999997 ], [ -64.326072, -8.97983209999995 ], [ -64.3252888, -8.988070299999951 ], [ -64.3113185, -8.99647079999994 ], [ -64.281231, -8.993254199999971 ], [ -64.2566739, -8.98838 ], [ -64.2332051, -8.992308099999949 ], [ -64.2111196, -8.981831 ], [ -64.1750139, -8.960571399999941 ], [ -64.1494522, -8.95893719999998 ], [ -64.141766899999894, -8.945050699999969 ], [ -64.1508449, -8.90501479999995 ], [ -64.151732099999904, -8.889153399999939 ], [ -64.148793699999899, -8.873090699999979 ], [ -64.1582033, -8.843167499999939 ], [ -64.1552052, -8.835416199999941 ], [ -64.135759499999907, -8.820389199999971 ], [ -64.129458999999898, -8.805162699999929 ], [ -64.1447623, -8.776447299999971 ], [ -64.143067099999897, -8.743031499999971 ], [ -64.130868399999898, -8.72216019999996 ], [ -64.1245948, -8.71671379999998 ], [ -64.111260399999907, -8.725171099999949 ], [ -64.0947671, -8.72836349999994 ], [ -64.0751521, -8.71310749999998 ], [ -64.0588951, -8.70999449999994 ], [ -64.027869199999898, -8.71566619999993 ], [ -64.0354821, -8.69355769999993 ], [ -64.0325112, -8.686202599999939 ], [ -64.016426099999904, -8.667682 ], [ -64.0167031, -8.652500599999939 ], [ -64.005175199999897, -8.641748 ], [ -64.0048419, -8.625910899999949 ], [ -63.9910948, -8.61741379999995 ], [ -63.9862097, -8.58563389999995 ], [ -63.980263299999898, -8.58068809999997 ], [ -63.9671483, -8.587883599999939 ], [ -63.9655984, -8.595926099999931 ], [ -63.9540923, -8.60725379999997 ], [ -63.9459538999999, -8.60948529999996 ], [ -63.9245687, -8.57552539999995 ], [ -63.923171399999902, -8.559293499999971 ], [ -63.9390055, -8.55622789999995 ], [ -63.945620399999903, -8.550498 ], [ -63.9437880999999, -8.52660439999994 ], [ -63.970897099999902, -8.499333299999931 ], [ -63.9731772, -8.47844719999995 ], [ -63.9408384, -8.452264 ], [ -63.9390898, -8.44154849999995 ], [ -63.953727, -8.427964799999931 ], [ -63.9778954, -8.42013289999994 ], [ -63.9769545999999, -8.40973969999993 ], [ -63.945373199999899, -8.387826099999931 ], [ -63.9433677, -8.363489699999951 ], [ -63.944122499999899, -8.33118769999993 ], [ -63.931788299999901, -8.324691599999939 ], [ -63.910835899999903, -8.32852479999997 ], [ -63.9043422, -8.32205909999993 ], [ -63.8949267, -8.302028699999941 ], [ -63.8820051, -8.291229199999981 ], [ -63.870759399999898, -8.28881959999995 ], [ -63.847123699999898, -8.29503129999995 ], [ -63.8253386, -8.30615259999996 ], [ -63.7912312999999, -8.333215299999949 ], [ -63.773508299999897, -8.32073279999997 ], [ -63.7629234999999, -8.302654199999949 ], [ -63.7600651, -8.29110439999994 ], [ -63.7465624, -8.270169199999939 ], [ -63.7227614, -8.249499 ], [ -63.748562799999902, -8.20786519999996 ], [ -63.7415348, -8.190074099999951 ], [ -63.7234253, -8.175262299999931 ], [ -63.6934211, -8.15834869999998 ], [ -63.6824263, -8.137299 ], [ -63.6698977, -8.121743199999971 ], [ -63.662448599999898, -8.101171299999979 ], [ -63.6689496, -8.091904099999971 ], [ -63.6670003, -8.08160329999993 ], [ -63.6508706, -8.06644029999995 ], [ -63.6387579, -8.04719419999998 ], [ -63.6266184999999, -8.041184499999931 ], [ -63.621778999999897, -8.02961079999994 ], [ -63.62645, -8.01611209999993 ], [ -63.6218941, -7.99462109999996 ], [ -63.621249099999901, -7.97653169999995 ], [ -63.4422057, -7.97639249999997 ], [ -63.3272082, -7.97672029999995 ], [ -63.1183827, -7.97710719999998 ], [ -62.877206580999903, -7.97592221699995 ], [ -62.841209, -7.98843259999995 ], [ -62.831190799999902, -7.99608689999997 ], [ -62.8289733, -8.007045499999951 ], [ -62.812038599999902, -8.02389949999997 ], [ -62.790184, -8.02993619999995 ], [ -62.780643499999897, -8.027267399999969 ], [ -62.760179299999898, -8.03876169999995 ], [ -62.752007799999902, -8.03947479999994 ], [ -62.7065626999999, -8.086323599999959 ], [ -62.7000859, -8.08435279999998 ], [ -62.6908342, -8.100454099999981 ], [ -62.6816264, -8.10356619999993 ], [ -62.685124, -8.11596649999996 ], [ -62.6713860999999, -8.14151919999995 ], [ -62.6875008, -8.17291069999993 ], [ -62.6736096, -8.19482759999994 ], [ -62.6609276, -8.196598899999969 ], [ -62.652598699999899, -8.21726049999995 ], [ -62.654843, -8.230089699999951 ], [ -62.6353622, -8.24362359999998 ], [ -62.6212139, -8.248835699999971 ], [ -62.617686999999897, -8.25942589999994 ], [ -62.610085399999903, -8.259956699999981 ], [ -62.6003866, -8.27116459999996 ], [ -62.5831550999999, -8.269854499999949 ], [ -62.556956, -8.28573879999993 ], [ -62.5601794, -8.299356 ], [ -62.553804899999903, -8.304984799999939 ], [ -62.5552666, -8.318820599999979 ], [ -62.547666299999896, -8.347790399999949 ], [ -62.5529217, -8.355414399999971 ], [ -62.5496112, -8.364870899999969 ], [ -62.5391675, -8.358330499999971 ], [ -62.5308464, -8.37624709999994 ], [ -62.5184725, -8.38473819999996 ], [ -62.5008286, -8.366127699999939 ], [ -62.486948, -8.35921219999994 ], [ -62.478915599999901, -8.345673399999949 ], [ -62.465474599999901, -8.33974 ], [ -62.4537688, -8.34917289999993 ], [ -62.439723899999898, -8.367898 ], [ -62.4245582, -8.374985 ], [ -62.4082458, -8.377448099999979 ], [ -62.4000243999999, -8.37480319999997 ], [ -62.3840279, -8.37755579999993 ], [ -62.3705495, -8.384659399999981 ], [ -62.3608035, -8.39854929999996 ], [ -62.36122, -8.423689899999941 ], [ -62.3692809, -8.446119099999979 ], [ -62.3637203, -8.478227199999941 ], [ -62.3660512, -8.49356169999993 ], [ -62.353977799999903, -8.511701399999939 ], [ -62.3373587, -8.516638899999981 ], [ -62.3332224, -8.52776279999995 ], [ -62.3343346, -8.54619439999993 ], [ -62.3258046999999, -8.56370739999994 ], [ -62.3277245, -8.57253659999998 ], [ -62.3390795, -8.586894199999961 ], [ -62.341084, -8.602828799999941 ], [ -62.3357776, -8.60948459999997 ], [ -62.312027999999898, -8.622427399999941 ], [ -62.289502399999897, -8.639096599999959 ], [ -62.2793343, -8.629169899999971 ], [ -62.294307699999898, -8.60544079999994 ], [ -62.2893569, -8.588904499999961 ], [ -62.26559255, -8.57663576799996 ], [ -62.2428105, -8.580661699999951 ], [ -62.2286045, -8.59056839999994 ], [ -62.195252799999899, -8.594486399999941 ], [ -62.1837005, -8.59896649999996 ], [ -62.174691499999902, -8.628203 ], [ -62.1766425, -8.636919699999959 ], [ -62.1958053, -8.636828 ], [ -62.2005306, -8.64429279999996 ], [ -62.1814416, -8.657878899999959 ], [ -62.165087, -8.679393799999961 ], [ -62.1717727, -8.69507489999995 ], [ -62.1678059, -8.703227799999979 ], [ -62.154192899999899, -8.71043879999996 ], [ -62.148801799999902, -8.71830879999993 ], [ -62.1570318, -8.732212199999941 ], [ -62.1550309, -8.739642299999961 ], [ -62.1293917, -8.794699099999949 ], [ -62.124971699999897, -8.801671099999959 ], [ -62.0980029, -8.808921399999971 ], [ -62.0743019, -8.79857019999997 ], [ -62.0589398, -8.79655669999994 ], [ -62.031061, -8.79971009999997 ], [ -62.0213332, -8.82359789999998 ], [ -62.0039715999999, -8.83008389999998 ], [ -61.9970289, -8.840739 ], [ -61.9852218999999, -8.878606299999941 ], [ -61.97914, -8.873244599999961 ], [ -61.9540799, -8.876237 ], [ -61.9381066, -8.881411699999941 ], [ -61.9058859, -8.874510399999959 ], [ -61.9030007, -8.86289219999998 ], [ -61.8793009, -8.86244029999995 ], [ -61.859748599999897, -8.85297329999997 ], [ -61.863745, -8.831463499999931 ], [ -61.8568625, -8.818236 ], [ -61.8610249, -8.80361549999998 ], [ -61.8556879, -8.789029399999951 ], [ -61.8433013, -8.779409099999951 ], [ -61.8448266, -8.75519909999997 ], [ -61.8412499, -8.73941059999993 ], [ -61.828108, -8.73262549999993 ], [ -61.806246299999898, -8.747781799999929 ], [ -61.790022, -8.74516269999998 ], [ -61.7746056, -8.74822889999996 ], [ -61.7621133, -8.73715239999996 ], [ -61.763611099999899, -8.728796599999949 ], [ -61.7488815, -8.723770099999969 ], [ -61.7401295, -8.709865199999969 ], [ -61.741853999999897, -8.69519289999994 ], [ -61.7259713, -8.693602399999969 ], [ -61.713274199999901, -8.687852699999951 ], [ -61.7053617, -8.707526399999949 ], [ -61.6975237999999, -8.709584099999971 ], [ -61.673581199999902, -8.705016799999949 ], [ -61.6504161, -8.713557499999981 ], [ -61.646081099999897, -8.72069939999994 ], [ -61.6305548999999, -8.72195839999995 ], [ -61.6264691, -8.728853499999961 ], [ -61.6295527, -8.75295619999997 ], [ -61.6232980999999, -8.75825419999995 ], [ -61.6060277999999, -8.794714 ], [ -61.5901054999999, -8.794495299999941 ], [ -61.580101199999902, -8.802692099999939 ], [ -61.5683676, -8.801082399999929 ], [ -61.5531685, -8.809537199999969 ], [ -61.5430751, -8.819098399999969 ], [ -61.5271948, -8.816858 ], [ -61.5137215, -8.83695179999995 ], [ -61.512465399999897, -8.860555399999949 ], [ -61.505229799999903, -8.872068799999971 ], [ -61.4921497999999, -8.88483339999993 ], [ -61.484578, -8.905941399999961 ], [ -61.469214, -8.92011429999997 ], [ -61.489539799999903, -8.93727169999994 ], [ -61.5057343, -8.966188399999959 ], [ -61.5136573999999, -8.990137399999981 ], [ -61.5189674, -8.996213299999971 ], [ -61.5279775, -9.019350599999941 ], [ -61.5298792, -9.03938449999993 ], [ -61.5416193, -9.05398059999993 ], [ -61.549405299999897, -9.081140399999979 ], [ -61.555755, -9.092402599999961 ], [ -61.5589022999999, -9.117600099999949 ], [ -61.5553819, -9.13149689999995 ], [ -61.5394856, -9.15196479999997 ], [ -61.531903499999899, -9.171047499999929 ], [ -61.523643299999897, -9.179018099999951 ], [ -61.519594299999902, -9.19733909999997 ], [ -61.5274295, -9.22648809999993 ], [ -61.5248650999999, -9.242855099999931 ], [ -61.551985699999904, -9.243851599999971 ], [ -61.5683872, -9.237088 ], [ -61.589093299999902, -9.243673699999929 ], [ -61.599616899999901, -9.256035099999959 ], [ -61.628343399999899, -9.257097 ], [ -61.633383, -9.27428669999995 ], [ -61.625302599999898, -9.28412329999998 ], [ -61.6119925, -9.280701599999929 ], [ -61.6154114, -9.306234 ], [ -61.6113336, -9.315728099999941 ], [ -61.6162106, -9.32682579999994 ], [ -61.623729399999903, -9.334536199999951 ], [ -61.627875, -9.351636799999939 ], [ -61.6259281, -9.36301169999996 ], [ -61.614777699999898, -9.35629989999995 ], [ -61.6101297, -9.362516199999961 ], [ -61.5946382, -9.36870439999996 ], [ -61.5793547, -9.368434899999951 ], [ -61.5633169, -9.37815669999998 ], [ -61.5589388, -9.38548029999993 ], [ -61.560319, -9.40345569999994 ], [ -61.550538699999898, -9.41470349999997 ], [ -61.5558900999999, -9.421791199999969 ], [ -61.55672, -9.435615 ], [ -61.5646682, -9.43835549999994 ], [ -61.5817187, -9.45912649999997 ], [ -61.578468299999898, -9.46951749999994 ], [ -61.5627368, -9.48577139999998 ], [ -61.549890499999897, -9.489544299999981 ], [ -61.526508099999901, -9.501072 ], [ -61.549120699999897, -9.512488899999941 ], [ -61.5446823, -9.520164 ], [ -61.5271246, -9.533266 ], [ -61.513442499999897, -9.528531399999959 ], [ -61.5080429, -9.540463 ], [ -61.510371399999897, -9.565091099999959 ], [ -61.4964529, -9.57437719999996 ], [ -61.4949271, -9.584928699999979 ], [ -61.5010983, -9.60922819999996 ], [ -61.4968552, -9.62405869999998 ], [ -61.476965499999899, -9.629855 ], [ -61.4950125, -9.659882699999971 ], [ -61.5068828, -9.661955899999951 ], [ -61.502148599999899, -9.682818699999929 ], [ -61.505271999999898, -9.69138189999995 ], [ -61.519662, -9.697033799999931 ], [ -61.532429299999897, -9.71177649999993 ], [ -61.5460927, -9.71540669999996 ], [ -61.5530502, -9.707192099999929 ], [ -61.5746372999999, -9.717793299999929 ], [ -61.566776699999899, -9.72938329999994 ], [ -61.555249499999903, -9.729079399999931 ], [ -61.531501299999903, -9.73991189999998 ], [ -61.532611099999897, -9.757984199999949 ], [ -61.5462176, -9.78478669999993 ], [ -61.538391499999904, -9.79343319999998 ], [ -61.524913399999903, -9.795730299999949 ], [ -61.525274399999901, -9.807633399999929 ], [ -61.5312802, -9.821553399999971 ], [ -61.5197334, -9.82153609999995 ], [ -61.5126672, -9.853542399999981 ], [ -61.507913599999902, -9.861081799999971 ], [ -61.511076499999902, -9.895561399999959 ], [ -61.5249818, -9.90657569999996 ], [ -61.523142699999902, -9.928032599999939 ], [ -61.5287329, -9.93607769999994 ], [ -61.5228182, -9.94669289999996 ], [ -61.532422499999903, -9.95263129999995 ], [ -61.5394272999999, -9.964098499999981 ], [ -61.5279846, -9.97043009999993 ], [ -61.5312021, -9.98985029999994 ], [ -61.5386329, -9.995372599999939 ], [ -61.545470099999903, -10.0188482 ], [ -61.5558735, -10.0389514 ], [ -61.5717407, -10.046522 ], [ -61.5848639, -10.0615897 ], [ -61.579905799999899, -10.0692273 ], [ -61.5832973, -10.0956755 ], [ -61.5886566, -10.1040616999999 ], [ -61.5901799, -10.121460699999901 ], [ -61.601236399999898, -10.1500900999999 ], [ -61.5968045, -10.162376499999899 ], [ -61.578560099999898, -10.1632006 ], [ -61.5624643, -10.1718971 ], [ -61.557750499999898, -10.1823138 ], [ -61.565720999999897, -10.2030334 ], [ -61.5740051, -10.208959299999901 ], [ -61.57761, -10.2265786999999 ], [ -61.576724399999897, -10.248576199999899 ], [ -61.571921099999898, -10.2592476 ], [ -61.554592, -10.279556199999901 ], [ -61.5454175, -10.2985434 ], [ -61.553334699999901, -10.3070056999999 ], [ -61.5301392, -10.333314 ], [ -61.5147517, -10.3368464 ], [ -61.5131704, -10.3486313 ], [ -61.501721599999897, -10.3537765 ], [ -61.5031111, -10.3759259 ], [ -61.4956533, -10.390235599999899 ], [ -61.489552199999899, -10.3902648 ], [ -61.476913399999901, -10.4106313999999 ], [ -61.4617928, -10.419904599999899 ], [ -61.4735108, -10.4749575999999 ], [ -61.480815699999901, -10.4877483 ], [ -61.480983299999899, -10.5164053 ], [ -61.477987799999902, -10.5316463 ], [ -61.466321799999903, -10.541211299999899 ], [ -61.4701214, -10.5565303 ], [ -61.4799609, -10.5691537 ], [ -61.4762363, -10.6076634 ], [ -61.4895978, -10.631077699999899 ], [ -61.4789575, -10.643043599999899 ], [ -61.4844843, -10.6737666 ], [ -61.490585199999899, -10.6732368999999 ], [ -61.4980285, -10.6862896 ], [ -61.499393499999897, -10.6986176 ], [ -61.485823599999897, -10.7080424 ], [ -61.476367099999898, -10.722504 ], [ -61.485286, -10.7262906 ], [ -61.4884003, -10.7364767 ], [ -61.480874099999902, -10.7441982999999 ], [ -61.4814655, -10.7601721999999 ], [ -61.4764168, -10.767794599999901 ], [ -61.4796162, -10.7876965 ], [ -61.4738335, -10.7975127 ], [ -61.4860292, -10.8006113 ], [ -61.493297799999901, -10.7845154 ], [ -61.5052947, -10.7847563999999 ], [ -61.510896499999902, -10.7936807 ], [ -61.5034218, -10.8084451999999 ], [ -61.5125226, -10.8222031 ], [ -61.509033799999898, -10.8322468 ], [ -61.520512799999899, -10.8419168999999 ], [ -61.5251489, -10.8558039 ], [ -61.522935399999902, -10.878884399999899 ], [ -61.5255301, -10.887078299999899 ], [ -61.514727999999899, -10.9116164 ], [ -61.5204732999999, -10.9194242 ], [ -61.530087299999899, -10.9790194999999 ], [ -61.546798099999897, -10.9775976 ], [ -61.5502579, -10.9860947 ], [ -61.429002099999899, -10.9875342 ], [ -61.1031945, -10.9911124999999 ], [ -61.0005995, -10.9922392999999 ], [ -61.0005934, -10.988351 ], [ -60.795245, -10.98912 ], [ -60.4912227, -10.9900208 ], [ -60.460050099999897, -10.9898562 ], [ -60.452471, -10.9932775999999 ], [ -60.4501887, -11.008462 ], [ -60.4383606, -11.0238391999999 ], [ -60.4437732, -11.0277953 ], [ -60.4465966, -11.0421534 ], [ -60.4297012, -11.037494299999899 ], [ -60.4114906, -11.046775899999901 ], [ -60.414386299999897, -11.0674705 ], [ -60.4041405, -11.0693764 ], [ -60.395856799999898, -11.0804434999999 ], [ -60.3915541, -11.0937926 ], [ -60.3732436, -11.094124599999899 ], [ -60.370326, -11.0990131 ], [ -60.35002, -11.108322 ], [ -60.3419726, -11.0826337 ], [ -60.3277166, -11.0781319 ], [ -60.317521499999899, -11.0650947 ], [ -60.3012492, -11.0571532 ], [ -60.2914395, -11.0654891 ], [ -60.2823584, -11.0640172 ], [ -60.2780232, -11.0795770999999 ], [ -60.280833399999899, -11.0915305 ], [ -60.2709987, -11.0986923999999 ], [ -60.265167399999903, -11.0936617999999 ], [ -60.2412674, -11.096888 ], [ -60.2274953, -11.105435 ], [ -60.2105524, -11.106808 ], [ -60.207248499999899, -11.1117563999999 ], [ -60.1914705, -11.1141127 ], [ -60.1764423, -11.098818 ], [ -60.159274599999897, -11.0956540999999 ], [ -60.1461594, -11.104126899999899 ], [ -60.130638599999898, -11.100872599999899 ], [ -60.1204096, -11.106898699999901 ], [ -60.1126914, -11.1025405999999 ], [ -60.0961937, -11.1107876999999 ], [ -60.0750227, -11.1050246 ], [ -60.0663542, -11.1209934 ], [ -60.0533872, -11.126054 ], [ -60.0374423, -11.1173547999999 ], [ -60.032028, -11.127778 ], [ -60.0160799, -11.1237221 ], [ -59.9912115, -11.123587299999899 ], [ -59.9868508, -11.1145192 ], [ -59.976776599999901, -11.1223889 ], [ -59.9799444, -11.1398028999999 ], [ -59.9950224, -11.148203 ], [ -59.9875818, -11.1711081999999 ], [ -59.9640257, -11.1891151 ], [ -59.9678605, -11.197865 ], [ -59.9811296, -11.2037619 ], [ -59.984405299999899, -11.2151992 ], [ -59.9796883, -11.2395294999999 ], [ -59.967911199999897, -11.2529339 ], [ -59.9685195, -11.266405099999901 ], [ -59.9604383, -11.2773991999999 ], [ -59.9594678999999, -11.294733899999899 ], [ -59.9500221, -11.3044045 ], [ -59.9270768, -11.3113301 ], [ -59.9171931, -11.3384346 ], [ -59.925437, -11.3617763 ], [ -59.9199125, -11.376027899999899 ], [ -59.9206343, -11.3980076 ], [ -59.9344129, -11.4236675 ], [ -59.9523538, -11.436422299999901 ], [ -59.9762413, -11.4392225 ], [ -59.985407699999897, -11.4693409 ], [ -60.002412999999898, -11.478662799999899 ], [ -60.017969299999898, -11.4960356 ], [ -60.031273499999898, -11.497013099999901 ], [ -60.031418099999897, -11.5116323999999 ], [ -60.0415255, -11.5166070999999 ], [ -60.0574695, -11.542096 ], [ -60.0941606, -11.5628470999999 ], [ -60.101609499999903, -11.5773604 ], [ -60.114884399999902, -11.591462 ], [ -60.1099085, -11.6155403 ], [ -60.1178826, -11.645798 ], [ -60.114555499999902, -11.6613814999999 ], [ -60.1224111, -11.6824017 ], [ -60.1174922, -11.6890354999999 ], [ -60.1216618, -11.7121038 ], [ -60.112496, -11.722254399999899 ], [ -60.1166971, -11.729297099999901 ], [ -60.1073891, -11.7489734 ], [ -60.112382, -11.759255499999901 ], [ -60.103191599999903, -11.786637299999899 ], [ -60.096860299999904, -11.795323799999901 ], [ -60.1033601, -11.8191717999999 ], [ -60.0979124999999, -11.8398567999999 ], [ -60.0885029, -11.8626126999999 ], [ -60.0824684, -11.866466699999901 ], [ -60.0658839, -11.8908248 ], [ -60.0503881, -11.8978663999999 ], [ -60.0443911, -11.8936312 ], [ -60.0247196, -11.8975292 ], [ -60.0068921, -11.8946831 ], [ -59.995441399999898, -11.9093126999999 ], [ -59.9841956, -11.9148213 ], [ -59.988740999999898, -11.929487199999899 ], [ -59.980415999999899, -11.9416014 ], [ -59.9869914, -11.960089799999899 ], [ -59.9713581, -11.9699456 ], [ -59.969024299999901, -11.9844795 ], [ -59.9795812999999, -11.9912868 ], [ -59.9671711, -12.0026354 ], [ -59.9793584, -12.0295497999999 ], [ -59.9695821, -12.032474599999899 ], [ -59.9619968, -12.0563673999999 ], [ -59.951804799999898, -12.065610499999901 ], [ -59.9292763, -12.0784547 ], [ -59.923046499999899, -12.0946537 ], [ -59.9125476, -12.0991564 ], [ -59.8998038, -12.1172227 ], [ -59.8996092, -12.166320299999899 ], [ -59.9108107, -12.1864565999999 ], [ -59.9017147, -12.2238791 ], [ -59.886798499999898, -12.245087199999899 ], [ -59.7743574, -12.3409558999999 ], [ -59.792941299999903, -12.3457819 ], [ -59.8021122, -12.3573941 ], [ -59.8054961, -12.368622 ], [ -59.8192559, -12.3787482 ], [ -59.832549399999898, -12.4013988 ], [ -59.8425487, -12.424849 ], [ -59.8405021, -12.4407093 ], [ -59.84416, -12.4671729 ], [ -59.855857199999903, -12.478604699999901 ], [ -59.8709522999999, -12.4839185 ], [ -59.8981783999999, -12.5016429 ], [ -59.892691199999902, -12.5237149 ], [ -59.8960537, -12.5364446 ], [ -59.9099242, -12.5500749 ], [ -59.9176290999999, -12.5645188999999 ], [ -59.9476548, -12.5992651999999 ], [ -59.972731699999898, -12.6099401 ], [ -59.981573899999901, -12.5921385 ], [ -60.0033205, -12.5923372 ], [ -60.0040041, -12.6017098999999 ], [ -60.0117269, -12.6093425 ], [ -60.028942, -12.6185671 ], [ -60.0325367, -12.628258899999899 ], [ -60.0453785, -12.6417106 ], [ -60.045798299999902, -12.6615085999999 ], [ -60.0598348, -12.6641531 ], [ -60.067041199999899, -12.677503199999901 ], [ -60.0658458, -12.6938228 ], [ -60.0559764, -12.7049254 ], [ -60.0692145, -12.7204710999999 ], [ -60.074843799999897, -12.734483699999901 ], [ -60.0624587, -12.757406 ], [ -60.066907899999897, -12.767432999999899 ], [ -60.0592185, -12.7869481 ], [ -60.068450599999899, -12.7899181 ], [ -60.0656385, -12.8107047999999 ], [ -60.0735624, -12.8366746999999 ], [ -60.082817599999899, -12.852636 ], [ -60.079112699999897, -12.8811425 ], [ -60.088107799999896, -12.9024309 ], [ -60.101528099999904, -12.9134154999999 ], [ -60.1158267, -12.9486418 ], [ -60.1171653, -12.9595555999999 ], [ -60.1308596, -12.9616705999999 ], [ -60.1397946, -12.9702063 ], [ -60.1506317, -12.9640583 ], [ -60.1674159, -12.970643 ], [ -60.1833444, -12.967628999999899 ], [ -60.1920656, -12.9820558 ], [ -60.201416299999899, -12.9881200999999 ], [ -60.2058504, -13.000441 ], [ -60.2136568, -13.0070527 ], [ -60.2152922, -13.0269807 ], [ -60.2246931, -13.0335401 ], [ -60.2413314, -13.0384574999999 ], [ -60.247611999999897, -13.0530707 ], [ -60.2687782, -13.076017599999901 ], [ -60.2843717, -13.0848440999999 ], [ -60.2846488, -13.0976178999999 ], [ -60.2771203, -13.1126783 ], [ -60.2761467, -13.1268266 ], [ -60.2806217, -13.1356155 ], [ -60.2685051999999, -13.1449711 ], [ -60.2893389, -13.170385399999899 ], [ -60.3038367999999, -13.178369799999899 ], [ -60.3082236, -13.1994875 ], [ -60.3235435, -13.2200558 ], [ -60.3297838, -13.2354685999999 ], [ -60.324810699999901, -13.2504877 ], [ -60.3331707, -13.2579782 ], [ -60.339034599999898, -13.2723338 ], [ -60.3518053, -13.2730058999999 ], [ -60.3518141, -13.291730099999899 ], [ -60.3607564, -13.2984728 ], [ -60.3716151, -13.31859 ], [ -60.366092599999902, -13.332232 ], [ -60.3711719, -13.348376 ], [ -60.371343399999901, -13.3675469 ], [ -60.379586399999901, -13.375234299999899 ], [ -60.3788916, -13.3944408999999 ], [ -60.373201, -13.4123043 ], [ -60.3793059, -13.4153231 ], [ -60.3799549, -13.4304978 ], [ -60.3879196, -13.4546951 ], [ -60.411529899999898, -13.4616583 ], [ -60.430395099999899, -13.4819601999999 ], [ -60.4511712, -13.49279 ], [ -60.465586099999904, -13.4891152 ], [ -60.4864221, -13.4941820999999 ], [ -60.510948599999899, -13.5035966 ], [ -60.531665599999897, -13.5180898999999 ], [ -60.5303095, -13.527665899999899 ], [ -60.5357892, -13.5373006999999 ], [ -60.544034699999898, -13.536502299999899 ], [ -60.548375, -13.548396899999901 ], [ -60.5776508, -13.5652277 ], [ -60.6003112, -13.5727193 ], [ -60.6096173, -13.5687543 ], [ -60.6240999, -13.5691232999999 ], [ -60.634784399999901, -13.5745178 ], [ -60.6455074, -13.5928226999999 ], [ -60.655458, -13.6024416 ], [ -60.6692829, -13.6083305 ], [ -60.6742634, -13.6170913 ], [ -60.6860379, -13.6252274 ], [ -60.686368699999903, -13.6391634 ], [ -60.6935017, -13.6533044999999 ], [ -60.7020902, -13.6602700999999 ], [ -60.698561299999902, -13.6687914999999 ], [ -60.7139468, -13.6759977999999 ], [ -60.7175324, -13.6937000999999 ], [ -60.7350872, -13.6863764999999 ], [ -60.7552016, -13.6873161 ], [ -60.7695385, -13.6842053 ], [ -60.7705337, -13.6651065 ], [ -60.7863718, -13.6563669 ], [ -60.8100666, -13.655274599999901 ], [ -60.8190602, -13.6369275 ], [ -60.828589899999898, -13.629501 ], [ -60.8449777, -13.631559099999899 ], [ -60.8798406, -13.6175279 ], [ -60.894150599999897, -13.5939271 ], [ -60.9089256, -13.5848177999999 ], [ -60.9207565, -13.5689457 ], [ -60.924763599999899, -13.5570177 ], [ -60.918983899999901, -13.548326 ], [ -60.9230367, -13.5408563999999 ], [ -60.933890899999902, -13.540709499999901 ], [ -60.9510375, -13.551884099999899 ], [ -60.9674203, -13.5368945 ], [ -60.9788942, -13.5401773999999 ], [ -60.987038, -13.5481394999999 ], [ -61.005622699999897, -13.5502804999999 ], [ -61.012282899999903, -13.5310059 ], [ -61.0067554, -13.5184181999999 ], [ -61.0090087, -13.5064042999999 ], [ -60.998506, -13.499854 ], [ -61.0149244, -13.4875362 ], [ -61.025509, -13.49053 ], [ -61.0469844, -13.4846782 ], [ -61.0523636, -13.4925633 ], [ -61.0355987, -13.4970726 ], [ -61.0411515, -13.5077102999999 ], [ -61.060372899999898, -13.5118507999999 ], [ -61.0635943, -13.5020729 ], [ -61.075811, -13.4995314999999 ], [ -61.0877584, -13.4920938 ], [ -61.0978406, -13.4958334 ], [ -61.0950026, -13.5060938999999 ], [ -61.1034016, -13.515753899999901 ], [ -61.1061794, -13.5316634 ], [ -61.1259567, -13.5199014999999 ], [ -61.1339498, -13.527323399999901 ], [ -61.1532007, -13.527306699999899 ], [ -61.1549214, -13.5196642 ], [ -61.1712922, -13.5106087 ], [ -61.1878191, -13.5168710999999 ], [ -61.182811699999903, -13.5276587 ], [ -61.1942882, -13.5364486 ], [ -61.207928299999899, -13.5254341999999 ], [ -61.2217305, -13.530155 ], [ -61.233532899999901, -13.5250232999999 ], [ -61.2437901, -13.512811699999901 ], [ -61.2414548, -13.50437 ], [ -61.248344099999898, -13.4962740999999 ], [ -61.262344299999903, -13.4974525 ], [ -61.2752088, -13.5060564 ], [ -61.2855956, -13.5021136 ], [ -61.2883166, -13.4828575999999 ], [ -61.2963111, -13.4778254 ], [ -61.3053963, -13.4863131999999 ], [ -61.303957099999899, -13.5018069 ], [ -61.3286763, -13.5035766 ], [ -61.3394883, -13.508116099999899 ], [ -61.3422057, -13.5183764 ], [ -61.3505155, -13.5211573999999 ], [ -61.3897886, -13.5197691 ], [ -61.404961699999902, -13.5283408 ], [ -61.402456599999901, -13.5378712999999 ], [ -61.418508099999897, -13.5395983 ], [ -61.429567899999903, -13.545407899999899 ], [ -61.4551183, -13.5496769 ], [ -61.4699239, -13.5552501999999 ], [ -61.4919522, -13.546441199999901 ], [ -61.508256699999897, -13.5479382 ], [ -61.5217364, -13.5354732 ], [ -61.556375199999898, -13.518212199999899 ], [ -61.5724304, -13.5185724999999 ], [ -61.578929199999898, -13.5099015 ], [ -61.5730953999999, -13.4940953999999 ], [ -61.5842674, -13.4906209 ], [ -61.585620999999897, -13.500625699999899 ], [ -61.599508199999903, -13.5017152 ], [ -61.608014, -13.5116917 ], [ -61.6158785, -13.5114000999999 ], [ -61.6189911, -13.4991838 ], [ -61.626210399999898, -13.499852099999901 ], [ -61.6289867, -13.5154982 ], [ -61.6450655, -13.506815199999901 ], [ -61.651452199999902, -13.5187112999999 ], [ -61.668794799999901, -13.505057099999901 ], [ -61.6938441, -13.5080796999999 ], [ -61.707263699999899, -13.5169686999999 ], [ -61.730815999999898, -13.526544199999901 ], [ -61.744292599999902, -13.525959 ], [ -61.751707699999898, -13.5204151 ], [ -61.757347599999903, -13.5405747 ], [ -61.7645125, -13.5392075999999 ], [ -61.7692327, -13.5193118 ], [ -61.7765942, -13.5177576 ], [ -61.7781533, -13.5329872 ], [ -61.7899873, -13.5378655 ], [ -61.805803899999901, -13.5295545 ], [ -61.817124, -13.5274365999999 ], [ -61.8336515, -13.5392924 ], [ -61.840344199999898, -13.5269666999999 ], [ -61.852905899999897, -13.5384903 ], [ -61.868852699999898, -13.528222099999899 ], [ -61.8720959, -13.513368 ], [ -61.883209899999898, -13.4972993 ], [ -61.8810715, -13.4796 ], [ -61.887425999999898, -13.4407745 ], [ -61.899263399999903, -13.426834999999899 ], [ -61.9143466, -13.4337318999999 ], [ -61.9288243, -13.4255736 ], [ -61.9403771, -13.4078546 ], [ -61.9479889, -13.4153866999999 ], [ -61.956288899999898, -13.4082531999999 ], [ -61.9706229, -13.4061748999999 ], [ -61.9623452, -13.3911454 ], [ -61.977318899999901, -13.3880786 ], [ -61.971376, -13.3742487 ], [ -61.9804882, -13.3654943 ], [ -62.0032060999999, -13.3654124999999 ], [ -62.015405299999898, -13.3478615999999 ], [ -62.0130468999999, -13.3340913 ], [ -62.017207799999902, -13.3272840999999 ], [ -62.0327119, -13.333635399999901 ], [ -62.0462357, -13.316250599999901 ], [ -62.0569087, -13.3117753 ], [ -62.0569578, -13.2882003 ], [ -62.0690121, -13.295858899999899 ], [ -62.0842936, -13.2903074999999 ], [ -62.1011263, -13.2700841 ], [ -62.115684299999899, -13.2584651999999 ], [ -62.109931699999898, -13.2501344999999 ], [ -62.1090708, -13.2190393999999 ], [ -62.1149831, -13.2038838999999 ], [ -62.117686499999898, -13.1771492 ], [ -62.1152086, -13.1636806 ], [ -62.1197091, -13.153532799999899 ], [ -62.134825099999901, -13.149386499999901 ], [ -62.1429045, -13.1611636 ], [ -62.160095, -13.146478 ], [ -62.1695715, -13.1342045 ], [ -62.1660686, -13.1190781 ], [ -62.1749913, -13.1135042 ], [ -62.1839586, -13.12319 ], [ -62.178207, -13.1430166 ], [ -62.190933899999898, -13.1538295999999 ], [ -62.2002108, -13.150588 ], [ -62.201038299999901, -13.1245422 ], [ -62.2147888, -13.111344899999899 ], [ -62.2295702, -13.121563599999901 ], [ -62.2450118, -13.1208414 ], [ -62.2459304, -13.1451627 ], [ -62.267907099999903, -13.149147 ], [ -62.2846847, -13.142057099999899 ], [ -62.299349699999901, -13.1505528 ], [ -62.3058506, -13.1395014 ], [ -62.316771199999899, -13.1344680999999 ], [ -62.3214298, -13.1520742 ], [ -62.330516, -13.1399817999999 ], [ -62.3455423, -13.1371356999999 ], [ -62.3519615, -13.143294099999901 ], [ -62.3725731, -13.1407055 ], [ -62.3825437, -13.1308324 ], [ -62.3973755, -13.130102 ], [ -62.399378399999897, -13.1133862 ], [ -62.4139913, -13.1283821 ], [ -62.4177113, -13.1189419 ], [ -62.435960099999903, -13.0984695999999 ], [ -62.4334052, -13.0858135 ], [ -62.4429089, -13.0799114 ], [ -62.451878, -13.0877763 ], [ -62.4591019, -13.0811072 ], [ -62.4861812, -13.0779166 ], [ -62.5026304, -13.0831628999999 ], [ -62.5238183, -13.0655029 ], [ -62.534965499999899, -13.0732828 ], [ -62.547159899999897, -13.0739935 ], [ -62.5580399, -13.0656188 ], [ -62.612572499999899, -13.0412954 ], [ -62.6141327, -13.0262387999999 ], [ -62.600629399999903, -13.018833299999899 ], [ -62.6103524, -13.0114364 ], [ -62.621520099999898, -13.017708599999899 ], [ -62.633023799999897, -13.0106374 ], [ -62.629177899999902, -12.9958121 ], [ -62.638907, -12.9891567 ], [ -62.6521839, -12.989335299999899 ], [ -62.645269799999902, -12.9745947 ], [ -62.650823199999898, -12.9655806 ], [ -62.6606879, -12.9694718 ], [ -62.6645449, -12.980663 ], [ -62.6749101, -12.9909511999999 ], [ -62.694378399999898, -12.9922318 ], [ -62.6985773, -13.0028161999999 ], [ -62.7132126, -13.0043264999999 ], [ -62.7251595, -13.0012548999999 ], [ -62.7270202, -13.0147997 ], [ -62.7340206, -13.0218667999999 ], [ -62.7522109, -13.002045899999899 ], [ -62.7564091, -13.0171913999999 ], [ -62.7790975, -13.009573499999901 ], [ -62.7943513, -12.9952177 ], [ -62.797572699999897, -12.9838487 ], [ -62.8089019, -12.9621374 ], [ -62.8033008, -12.9450797 ], [ -62.822991499999901, -12.9337692999999 ], [ -62.838909999999899, -12.9473401999999 ], [ -62.8502642999999, -12.940932799999899 ], [ -62.843487599999897, -12.932154899999899 ], [ -62.8455486, -12.9231690999999 ], [ -62.8609038, -12.9128972999999 ], [ -62.8702099, -12.9106179 ], [ -62.8805431, -12.8872089 ], [ -62.8940789, -12.8730016 ], [ -62.8921564, -12.858841 ], [ -62.909076099999901, -12.8527093 ], [ -62.9213543, -12.8408615 ] ] ] } }
]
}
